start=new Date('2022-01-31T00:00:00.000Z').valueOf();
sats=[{"RA_OF_ASC_NODE":"165.2533","INCLINATION":"53.0547","APOAPSIS":"548.677","EPHEMERIS_TYPE":"0","ARG_OF_PERICENTER":"72.2646","TIME_SYSTEM":"UTC","DECAY_DATE":null,"SITE":"AFETR","GP_ID":"194982004","MEAN_MOTION_DOT":"0.00001373","COUNTRY_CODE":"US","REV_AT_EPOCH":"8071","TLE_LINE2":"2 46128  53.0547 165.2533 0002141  72.2646 287.8576 15.06406335 80719","BSTAR":"0.00011104000000","ELEMENT_SET_NO":"999","ECCENTRICITY":"0.00021410","NORAD_CAT_ID":"46128","SEMIMAJOR_AXIS":"6925.329","MEAN_ELEMENT_THEORY":"SGP4","EPOCH":"2022-01-30T20:02:45.244032","LAUNCH_DATE":"2020-08-18","CLASSIFICATION_TYPE":"U","MEAN_MOTION_DDOT":"0.0000000000000","MEAN_MOTION":"15.06406335","PERIAPSIS":"545.711","OBJECT_TYPE":"PAYLOAD","CENTER_NAME":"EARTH","REF_FRAME":"TEME","RCS_SIZE":"LARGE","OBJECT_ID":"2020-057M","MEAN_ANOMALY":"287.8576","TLE_LINE1":"1 46128U 20057M   22030.83524588  .00001373  00000-0  11104-3 0  9999","PERIOD":"95.592","FILE":"3287903","OBJECT_NAME":"STARLINK-1622"},{"CLASSIFICATION_TYPE":"U","MEAN_MOTION_DDOT":"0.0000000000000","LAUNCH_DATE":"2020-08-18","MEAN_ANOMALY":"281.8240","OBJECT_ID":"2020-057N","RCS_SIZE":"LARGE","TLE_LINE1":"1 46129U 20057N   22030.80943599  .00000742  00000-0  68721-4 0  9991","PERIOD":"95.593","OBJECT_NAME":"STARLINK-1623","FILE":"3287903","MEAN_MOTION":"15.06394232","PERIAPSIS":"546.102","CENTER_NAME":"EARTH","OBJECT_TYPE":"PAYLOAD","REF_FRAME":"TEME","SITE":"AFETR","GP_ID":"194980752","MEAN_MOTION_DOT":"0.00000742","RA_OF_ASC_NODE":"165.3623","INCLINATION":"53.0537","TIME_SYSTEM":"UTC","EPHEMERIS_TYPE":"0","APOAPSIS":"548.360","ARG_OF_PERICENTER":"78.2932","DECAY_DATE":null,"SEMIMAJOR_AXIS":"6925.366","NORAD_CAT_ID":"46129","MEAN_ELEMENT_THEORY":"SGP4","ELEMENT_SET_NO":"999","BSTAR":"0.00006872100000","ECCENTRICITY":"0.00016300","EPOCH":"2022-01-30T19:25:35.269536","TLE_LINE2":"2 46129  53.0537 165.3623 0001630  78.2932 281.8240 15.06394232 80710","REV_AT_EPOCH":"8071","COUNTRY_CODE":"US"},{"LAUNCH_DATE":"2020-08-18","MEAN_MOTION_DDOT":"0.0000000000000","CLASSIFICATION_TYPE":"U","REF_FRAME":"TEME","OBJECT_TYPE":"PAYLOAD","CENTER_NAME":"EARTH","MEAN_MOTION":"15.06398150","PERIAPSIS":"546.045","FILE":"3287903","OBJECT_NAME":"STARLINK-1624","TLE_LINE1":"1 46130U 20057P   22030.84260339 -.00001293  00000-0 -67948-4 0  9995","PERIOD":"95.592","RCS_SIZE":"LARGE","OBJECT_ID":"2020-057P","MEAN_ANOMALY":"271.9619","DECAY_DATE":null,"ARG_OF_PERICENTER":"88.1564","APOAPSIS":"548.393","EPHEMERIS_TYPE":"0","TIME_SYSTEM":"UTC","RA_OF_ASC_NODE":"165.2021","INCLINATION":"53.0540","MEAN_MOTION_DOT":"-0.00001293","GP_ID":"194981002","SITE":"AFETR","COUNTRY_CODE":"US","TLE_LINE2":"2 46130  53.0540 165.2021 0001695  88.1564 271.9619 15.06398150 81960","REV_AT_EPOCH":"8196","EPOCH":"2022-01-30T20:13:20.932896","BSTAR":"-0.00006794800000","ELEMENT_SET_NO":"999","ECCENTRICITY":"0.00016950","SEMIMAJOR_AXIS":"6925.354","NORAD_CAT_ID":"46130","MEAN_ELEMENT_THEORY":"SGP4"},{"COUNTRY_CODE":"US","REV_AT_EPOCH":"8169","TLE_LINE2":"2 46131  53.0532 185.1567 0001834  83.9560 276.1638 15.06406665 81691","ELEMENT_SET_NO":"999","BSTAR":"0.00016466000000","ECCENTRICITY":"0.00018340","SEMIMAJOR_AXIS":"6925.328","NORAD_CAT_ID":"46131","MEAN_ELEMENT_THEORY":"SGP4","EPOCH":"2022-01-30T20:31:56.056224","INCLINATION":"53.0532","RA_OF_ASC_NODE":"185.1567","APOAPSIS":"548.463","ARG_OF_PERICENTER":"83.9560","EPHEMERIS_TYPE":"0","TIME_SYSTEM":"UTC","DECAY_DATE":null,"SITE":"AFETR","GP_ID":"194981754","MEAN_MOTION_DOT":"0.00002172","PERIAPSIS":"545.923","MEAN_MOTION":"15.06406665","OBJECT_TYPE":"PAYLOAD","CENTER_NAME":"EARTH","REF_FRAME":"TEME","RCS_SIZE":"LARGE","MEAN_ANOMALY":"276.1638","OBJECT_ID":"2020-057Q","PERIOD":"95.592","TLE_LINE1":"1 46131U 20057Q   22030.85550991  .00002172  00000-0  16466-3 0  9996","FILE":"3287903","OBJECT_NAME":"STARLINK-1625","LAUNCH_DATE":"2020-08-18","CLASSIFICATION_TYPE":"U","MEAN_MOTION_DDOT":"0.0000000000000"},{"OBJECT_NAME":"STARLINK-1630","FILE":"3287903","PERIOD":"95.593","TLE_LINE1":"1 46132U 20057R   22030.76152467 -.00000565  00000-0 -19017-4 0  9995","MEAN_ANOMALY":"284.6112","OBJECT_ID":"2020-057R","RCS_SIZE":"LARGE","REF_FRAME":"TEME","CENTER_NAME":"EARTH","OBJECT_TYPE":"PAYLOAD","MEAN_MOTION":"15.06393894","PERIAPSIS":"545.885","MEAN_MOTION_DDOT":"0.0000000000000","CLASSIFICATION_TYPE":"U","LAUNCH_DATE":"2020-08-18","EPOCH":"2022-01-30T18:16:35.731488","NORAD_CAT_ID":"46132","SEMIMAJOR_AXIS":"6925.367","MEAN_ELEMENT_THEORY":"SGP4","BSTAR":"-0.00001901700000","ECCENTRICITY":"0.00019460","ELEMENT_SET_NO":"999","REV_AT_EPOCH":"8140","TLE_LINE2":"2 46132  53.0543 205.5737 0001946  75.5093 284.6112 15.06393894 81401","COUNTRY_CODE":"US","MEAN_MOTION_DOT":"-0.00000565","GP_ID":"194981505","SITE":"AFETR","DECAY_DATE":null,"TIME_SYSTEM":"UTC","APOAPSIS":"548.580","ARG_OF_PERICENTER":"75.5093","EPHEMERIS_TYPE":"0","INCLINATION":"53.0543","RA_OF_ASC_NODE":"205.5737"},{"SITE":"AFETR","GP_ID":"194980253","MEAN_MOTION_DOT":"0.00002457","INCLINATION":"53.0518","RA_OF_ASC_NODE":"165.5608","ARG_OF_PERICENTER":"78.8118","APOAPSIS":"548.206","EPHEMERIS_TYPE":"0","TIME_SYSTEM":"UTC","DECAY_DATE":null,"BSTAR":"0.00018371000000","ECCENTRICITY":"0.00014890","ELEMENT_SET_NO":"999","NORAD_CAT_ID":"46133","SEMIMAJOR_AXIS":"6925.310","MEAN_ELEMENT_THEORY":"SGP4","EPOCH":"2022-01-30T18:16:35.404896","COUNTRY_CODE":"US","TLE_LINE2":"2 46133  53.0518 165.5608 0001489  78.8118 281.3038 15.06412630 81953","REV_AT_EPOCH":"8195","CLASSIFICATION_TYPE":"U","MEAN_MOTION_DDOT":"0.0000000000000","LAUNCH_DATE":"2020-08-18","RCS_SIZE":"LARGE","OBJECT_ID":"2020-057S","MEAN_ANOMALY":"281.3038","PERIOD":"95.591","TLE_LINE1":"1 46133U 20057S   22030.76152089  .00002457  00000-0  18371-3 0  9997","FILE":"3287903","OBJECT_NAME":"STARLINK-1637","MEAN_MOTION":"15.06412630","PERIAPSIS":"546.144","OBJECT_TYPE":"PAYLOAD","CENTER_NAME":"EARTH","REF_FRAME":"TEME"},{"CLASSIFICATION_TYPE":"U","MEAN_MOTION_DDOT":"0.0000000000000","LAUNCH_DATE":"2020-08-18","MEAN_ANOMALY":"270.2703","OBJECT_ID":"2020-057T","RCS_SIZE":"LARGE","OBJECT_NAME":"STARLINK-1638","FILE":"3287903","PERIOD":"95.592","TLE_LINE1":"1 46134U 20057T   22030.63250513  .00001657  00000-0  13009-3 0  9999","PERIAPSIS":"546.011","MEAN_MOTION":"15.06398680","REF_FRAME":"TEME","CENTER_NAME":"EARTH","OBJECT_TYPE":"PAYLOAD","GP_ID":"194980503","SITE":"AFETR","MEAN_MOTION_DOT":"0.00001657","RA_OF_ASC_NODE":"166.1447","INCLINATION":"53.0536","DECAY_DATE":null,"TIME_SYSTEM":"UTC","ARG_OF_PERICENTER":"89.8486","APOAPSIS":"548.425","EPHEMERIS_TYPE":"0","NORAD_CAT_ID":"46134","SEMIMAJOR_AXIS":"6925.353","MEAN_ELEMENT_THEORY":"SGP4","ECCENTRICITY":"0.00017430","BSTAR":"0.00013009000000","ELEMENT_SET_NO":"999","EPOCH":"2022-01-30T15:10:48.443232","TLE_LINE2":"2 46134  53.0536 166.1447 0001743  89.8486 270.2703 15.06398680 80688","REV_AT_EPOCH":"8068","COUNTRY_CODE":"US"},{"EPOCH":"2022-01-30T18:43:06.948192","SEMIMAJOR_AXIS":"6925.336","NORAD_CAT_ID":"46135","MEAN_ELEMENT_THEORY":"SGP4","ECCENTRICITY":"0.00018550","BSTAR":"0.00008327700000","ELEMENT_SET_NO":"999","TLE_LINE2":"2 46135  53.0544 165.4841 0001855  87.4049 272.7153 15.06404190 80704","REV_AT_EPOCH":"8070","COUNTRY_CODE":"US","MEAN_MOTION_DOT":"0.00000959","GP_ID":"194981255","SITE":"AFETR","DECAY_DATE":null,"TIME_SYSTEM":"UTC","EPHEMERIS_TYPE":"0","APOAPSIS":"548.485","ARG_OF_PERICENTER":"87.4049","INCLINATION":"53.0544","RA_OF_ASC_NODE":"165.4841","OBJECT_NAME":"STARLINK-1639","FILE":"3287903","PERIOD":"95.592","TLE_LINE1":"1 46135U 20057U   22030.77994153  .00000959  00000-0  83277-4 0  9999","MEAN_ANOMALY":"272.7153","OBJECT_ID":"2020-057U","RCS_SIZE":"LARGE","REF_FRAME":"TEME","CENTER_NAME":"EARTH","OBJECT_TYPE":"PAYLOAD","PERIAPSIS":"545.916","MEAN_MOTION":"15.06404190","MEAN_MOTION_DDOT":"0.0000000000000","CLASSIFICATION_TYPE":"U","LAUNCH_DATE":"2020-08-18"},{"TLE_LINE1":"1 46136U 20057V   22030.82878916  .00000553  00000-0  56040-4 0  9992","PERIOD":"95.592","OBJECT_NAME":"STARLINK-1643","FILE":"3287903","MEAN_ANOMALY":"279.0839","OBJECT_ID":"2020-057V","RCS_SIZE":"LARGE","CENTER_NAME":"EARTH","OBJECT_TYPE":"PAYLOAD","REF_FRAME":"TEME","PERIAPSIS":"545.902","MEAN_MOTION":"15.06402516","MEAN_MOTION_DDOT":"0.0000000000000","CLASSIFICATION_TYPE":"U","LAUNCH_DATE":"2020-08-18","EPOCH":"2022-01-30T19:53:27.383424","SEMIMAJOR_AXIS":"6925.341","NORAD_CAT_ID":"46136","MEAN_ELEMENT_THEORY":"SGP4","ECCENTRICITY":"0.00018830","BSTAR":"0.00005604000000","ELEMENT_SET_NO":"999","REV_AT_EPOCH":"8029","TLE_LINE2":"2 46136  53.0533 195.2666 0001883  81.0363 279.0839 15.06402516 80294","COUNTRY_CODE":"US","MEAN_MOTION_DOT":"0.00000553","SITE":"AFETR","GP_ID":"194982005","TIME_SYSTEM":"UTC","APOAPSIS":"548.510","EPHEMERIS_TYPE":"0","ARG_OF_PERICENTER":"81.0363","DECAY_DATE":null,"INCLINATION":"53.0533","RA_OF_ASC_NODE":"195.2666"},{"COUNTRY_CODE":"US","TLE_LINE2":"2 46137  53.0554 185.1693 0002081  81.7360 278.3865 15.06397340 80436","REV_AT_EPOCH":"8043","ELEMENT_SET_NO":"999","BSTAR":"-0.00005931100000","ECCENTRICITY":"0.00020810","NORAD_CAT_ID":"46137","SEMIMAJOR_AXIS":"6925.357","MEAN_ELEMENT_THEORY":"SGP4","EPOCH":"2022-01-30T20:21:19.298592","RA_OF_ASC_NODE":"185.1693","INCLINATION":"53.0554","APOAPSIS":"548.663","ARG_OF_PERICENTER":"81.7360","EPHEMERIS_TYPE":"0","TIME_SYSTEM":"UTC","DECAY_DATE":null,"SITE":"AFETR","GP_ID":"194980753","MEAN_MOTION_DOT":"-0.00001165","PERIAPSIS":"545.781","MEAN_MOTION":"15.06397340","OBJECT_TYPE":"PAYLOAD","CENTER_NAME":"EARTH","REF_FRAME":"TEME","RCS_SIZE":"LARGE","OBJECT_ID":"2020-057W","MEAN_ANOMALY":"278.3865","TLE_LINE1":"1 46137U 20057W   22030.84814003 -.00001165  00000-0 -59311-4 0  9998","PERIOD":"95.592","FILE":"3287903","OBJECT_NAME":"STARLINK-1586","LAUNCH_DATE":"2020-08-18","CLASSIFICATION_TYPE":"U","MEAN_MOTION_DDOT":"0.0000000000000"}];
